{
"type": "FeatureCollection",
"name": "labels_aoi",
"crs": { "type": "name", "properties": { "name": "urn:ogc:def:crs:OGC::CRS84" } },
"features": [
{ "type": "Feature", "properties": { "id": null, "sr_from": "2008-03-04", "sr_to": null, "color": null, "type": "radioactive", "name_en": "SOX", "name_fr": "SOX" }, "geometry": { "type": "Point", "coordinates": [ 6.477552108062111, 49.410136640719962 ] } },
{ "type": "Feature", "properties": { "id": null, "sr_from": "2011-01-01", "sr_to": null, "color": null, "type": "forest", "name_en": "Asturias", "name_fr": "Asturies" }, "geometry": { "type": "Point", "coordinates": [ -5.306787405392755, 43.179049448959361 ] } },
{ "type": "Feature", "properties": { "id": null, "sr_from": "2011-01-01", "sr_to": null, "color": null, "type": "restricted", "name_en": "Auvergne Volcanoes Secured Area", "name_fr": "Zone Sécurisée des Volcans d'Auvergne" }, "geometry": { "type": "Point", "coordinates": [ 2.834511660095899, 45.400089023094026 ] } },
{ "type": "Feature", "properties": { "id": null, "sr_from": "2023-01-01", "sr_to": "2028-01-01", "color": null, "type": "mist", "name_en": "The Mist", "name_fr": "La Brume" }, "geometry": { "type": "Point", "coordinates": [ -2.878593907839851, 48.085535777971032 ] } },
{ "type": "Feature", "properties": { "id": null, "sr_from": "2028-01-01", "sr_to": null, "color": null, "type": "mist", "name_en": "The Mist", "name_fr": "La Brume" }, "geometry": { "type": "Point", "coordinates": [ -3.252858800412661, 48.227614480556632 ] } },
{ "type": "Feature", "properties": { "id": null, "sr_from": "2011-01-01", "sr_to": null, "color": null, "type": "forest", "name_en": "Bialowiesky Forest", "name_fr": "Forêt de Bialowiesky" }, "geometry": { "type": "Point", "coordinates": [ 23.586109353661939, 52.975386444989347 ] } },
{ "type": "Feature", "properties": { "id": null, "sr_from": "2040-01-01", "sr_to": null, "color": null, "type": "restricted", "name_en": "Mazury-Bialowiesky Containment Area", "name_fr": "Zone de Quarantaine de Mazury-Bialowiesky" }, "geometry": { "type": "Point", "coordinates": [ 22.202075879418665, 53.591593246409815 ] } },
{ "type": "Feature", "properties": { "id": null, "sr_from": "2014-06-23", "sr_to": null, "color": null, "type": null, "name_en": "United Kingdom", "name_fr": "Royaume-Uni" }, "geometry": { "type": "Point", "coordinates": [ -4.604306488317921, 57.398557329875786 ] } },
{ "type": "Feature", "properties": { "id": null, "sr_from": "2014-06-23", "sr_to": null, "color": null, "type": null, "name_en": "United Kingdom", "name_fr": "Royaume-Uni" }, "geometry": { "type": "Point", "coordinates": [ -3.888778697663818, 52.920129202952126 ] } },
{ "type": "Feature", "properties": { "id": null, "sr_from": "2014-06-23", "sr_to": null, "color": null, "type": null, "name_en": "United Kingdom", "name_fr": "Royaume-Uni" }, "geometry": { "type": "Point", "coordinates": [ -3.056446380699801, 50.853357509954911 ] } },
{ "type": "Feature", "properties": { "id": null, "sr_from": "2014-06-23", "sr_to": null, "color": null, "type": null, "name_en": "United Kingdom", "name_fr": "Royaume-Uni" }, "geometry": { "type": "Point", "coordinates": [ -1.650679729215727, 53.238206344027923 ] } },
{ "type": "Feature", "properties": { "id": null, "sr_from": "2011-01-01", "sr_to": null, "color": null, "type": "radioactive", "name_en": "Scottish Irradiated Zone", "name_fr": "Zone Irradiée Ecossaise" }, "geometry": { "type": "Point", "coordinates": [ -4.228370911022501, 58.359023363244752 ] } },
{ "type": "Feature", "properties": { "id": null, "sr_from": "2014-06-23", "sr_to": null, "color": null, "type": null, "name_en": "United Kingdom", "name_fr": "Royaume-Uni" }, "geometry": { "type": "Point", "coordinates": [ -4.366036029989995, 51.946915927447805 ] } },
{ "type": "Feature", "properties": { "id": null, "sr_from": "2014-06-23", "sr_to": null, "color": null, "type": null, "name_en": "United Kingdom", "name_fr": "Royaume-Uni" }, "geometry": { "type": "Point", "coordinates": [ -0.974760996306184, 50.801618610319828 ] } },
{ "type": "Feature", "properties": { "id": null, "sr_from": "2014-06-23", "sr_to": null, "color": null, "type": null, "name_en": "United Kingdom", "name_fr": "Royaume-Uni" }, "geometry": { "type": "Point", "coordinates": [ -4.721919627500217, 50.41628643503568 ] } },
{ "type": "Feature", "properties": { "id": null, "sr_from": "2014-06-23", "sr_to": null, "color": null, "type": null, "name_en": "United Kingdom", "name_fr": "Royaume-Uni" }, "geometry": { "type": "Point", "coordinates": [ -3.124071640240991, 52.332660352198303 ] } },
{ "type": "Feature", "properties": { "id": null, "sr_from": "2014-06-23", "sr_to": null, "color": null, "type": null, "name_en": "United Kingdom", "name_fr": "Royaume-Uni" }, "geometry": { "type": "Point", "coordinates": [ -3.535173354536449, 51.128287687108518 ] } },
{ "type": "Feature", "properties": { "id": null, "sr_from": "2004-01-01", "sr_to": null, "color": null, "type": "radioactive", "name_en": "Kent Irradiated Zone", "name_fr": "Zone Irradiée du Kent" }, "geometry": { "type": "Point", "coordinates": [ 0.928459154121927, 50.947116241064258 ] } },
{ "type": "Feature", "properties": { "id": null, "sr_from": "2014-06-23", "sr_to": null, "color": null, "type": null, "name_en": "United Kingdom", "name_fr": "Royaume-Uni" }, "geometry": { "type": "Point", "coordinates": [ 0.998114526527226, 51.141438255505435 ] } },
{ "type": "Feature", "properties": { "id": null, "sr_from": "2014-06-23", "sr_to": null, "color": null, "type": null, "name_en": "United Kingdom", "name_fr": "Royaume-Uni" }, "geometry": { "type": "Point", "coordinates": [ -1.616109177325342, 51.863586788057198 ] } },
{ "type": "Feature", "properties": { "id": null, "sr_from": "2016-01-01", "sr_to": null, "color": null, "type": "toxic", "name_en": "Scottish Fringe Toxic Zone", "name_fr": "Zone Toxique de la Côte Ecossaise" }, "geometry": { "type": "Point", "coordinates": [ -2.203845640341506, 57.146400795509734 ] } },
{ "type": "Feature", "properties": { "id": null, "sr_from": "2014-06-23", "sr_to": null, "color": null, "type": null, "name_en": "United Kingdom", "name_fr": "Royaume-Uni" }, "geometry": { "type": "Point", "coordinates": [ -3.14925298473009, 54.965912239422444 ] } },
{ "type": "Feature", "properties": { "id": null, "sr_from": "2014-06-23", "sr_to": null, "color": null, "type": null, "name_en": "United Kingdom", "name_fr": "Royaume-Uni" }, "geometry": { "type": "Point", "coordinates": [ -3.637516336110141, 56.701835650628475 ] } },
{ "type": "Feature", "properties": { "id": null, "sr_from": "2035-01-01", "sr_to": null, "color": null, "type": "radioactive", "name_en": "Northern Irradiated Zone", "name_fr": "Zone Irradiée du Nord" }, "geometry": { "type": "Point", "coordinates": [ -2.990718469794825, 55.416293811839907 ] } },
{ "type": "Feature", "properties": { "id": null, "sr_from": "2014-06-23", "sr_to": null, "color": null, "type": "toxic", "name_en": "Yorkshire Fringe Toxic Zone", "name_fr": "Zone Toxique de la Côte du Yorkshire" }, "geometry": { "type": "Point", "coordinates": [ -0.614979912626001, 54.319572216852954 ] } },
{ "type": "Feature", "properties": { "id": null, "sr_from": "2011-02-19", "sr_to": null, "color": null, "type": "toxic", "name_en": "Stinkfens", "name_fr": "Stinkfens" }, "geometry": { "type": "Point", "coordinates": [ 0.465989455043135, 52.689815282140842 ] } },
{ "type": "Feature", "properties": { "id": null, "sr_from": "2038-01-01", "sr_to": "2100-01-01", "color": null, "type": "corpo", "name_en": "Algarve Corporatist Enclave", "name_fr": "Enclave Corporatiste d'Algarve" }, "geometry": { "type": "Point", "coordinates": [ -8.161408111000256, 37.178070355958717 ] } }
]
}
