{
"type": "FeatureCollection",
"name": "labels",
"crs": { "type": "name", "properties": { "name": "urn:ogc:def:crs:OGC:1.3:CRS84" } },
"features": [
{ "type": "Feature", "properties": { "NAME_EN": "Chile", "NAME_FR": "Chili", "sr_from": "1996\/01\/01", "sr_to": null, "gov": null }, "geometry": { "type": "Point", "coordinates": [ -71.504, -40.34 ] } },
{ "type": "Feature", "properties": { "NAME_EN": "Bolivia", "NAME_FR": "Bolivie", "sr_from": "1996\/01\/01", "sr_to": null, "gov": null }, "geometry": { "type": "Point", "coordinates": [ -64.679, -16.775 ] } },
{ "type": "Feature", "properties": { "NAME_EN": "Peru", "NAME_FR": "Pérou", "sr_from": "1996\/01\/01", "sr_to": null, "gov": null }, "geometry": { "type": "Point", "coordinates": [ -74.359, -9.239 ] } },
{ "type": "Feature", "properties": { "NAME_EN": "Argentina", "NAME_FR": "Argentine", "sr_from": "1996\/01\/01", "sr_to": null, "gov": null }, "geometry": { "type": "Point", "coordinates": [ -65.413, -36.612 ] } },
{ "type": "Feature", "properties": { "NAME_EN": "Palestine", "NAME_FR": "Palestine", "sr_from": "1996\/01\/01", "sr_to": null, "gov": null }, "geometry": { "type": "Point", "coordinates": [ 35.201, 31.919 ] } },
{ "type": "Feature", "properties": { "NAME_EN": "Belarus", "NAME_FR": "Biélorussie", "sr_from": "1996\/01\/01", "sr_to": null, "gov": null }, "geometry": { "type": "Point", "coordinates": [ 28.042, 53.579 ] } },
{ "type": "Feature", "properties": { "NAME_EN": "Lithuania", "NAME_FR": "Lituanie", "sr_from": "1996\/01\/01", "sr_to": null, "gov": null }, "geometry": { "type": "Point", "coordinates": [ 23.883, 55.341 ] } },
{ "type": "Feature", "properties": { "NAME_EN": "Uruguay", "NAME_FR": "Uruguay", "sr_from": "1996\/01\/01", "sr_to": null, "gov": null }, "geometry": { "type": "Point", "coordinates": [ -56.014, -32.82 ] } },
{ "type": "Feature", "properties": { "NAME_EN": "Estonia", "NAME_FR": "Estonie", "sr_from": "1996\/01\/01", "sr_to": null, "gov": null }, "geometry": { "type": "Point", "coordinates": [ 25.535, 58.681 ] } },
{ "type": "Feature", "properties": { "NAME_EN": "Latvia", "NAME_FR": "Lettonie", "sr_from": "1996\/01\/01", "sr_to": null, "gov": null }, "geometry": { "type": "Point", "coordinates": [ 24.905, 56.862 ] } },
{ "type": "Feature", "properties": { "NAME_EN": "Norway", "NAME_FR": "Norvège", "sr_from": "1996\/01\/01", "sr_to": null, "gov": null }, "geometry": { "type": "Point", "coordinates": [ 16.773, 73.305 ] } },
{ "type": "Feature", "properties": { "NAME_EN": "Sweden", "NAME_FR": "Suède", "sr_from": "1996\/01\/01", "sr_to": null, "gov": null }, "geometry": { "type": "Point", "coordinates": [ 17.003, 63.403 ] } },
{ "type": "Feature", "properties": { "NAME_EN": "Finland", "NAME_FR": "Finlande", "sr_from": "1996\/01\/01", "sr_to": null, "gov": null }, "geometry": { "type": "Point", "coordinates": [ 26.306, 64.906 ] } },
{ "type": "Feature", "properties": { "NAME_EN": "Vietnam", "NAME_FR": "Viêt Nam", "sr_from": "1996\/01\/01", "sr_to": null, "gov": null }, "geometry": { "type": "Point", "coordinates": [ 106.277, 16.805 ] } },
{ "type": "Feature", "properties": { "NAME_EN": "Cambodia", "NAME_FR": "Cambodge", "sr_from": "1996\/01\/01", "sr_to": null, "gov": null }, "geometry": { "type": "Point", "coordinates": [ 104.904, 12.721 ] } },
{ "type": "Feature", "properties": { "NAME_EN": "Laos", "NAME_FR": "Laos", "sr_from": "1996\/01\/01", "sr_to": null, "gov": null }, "geometry": { "type": "Point", "coordinates": [ 103.719, 18.54 ] } },
{ "type": "Feature", "properties": { "NAME_EN": "Tunisia", "NAME_FR": "Tunisie", "sr_from": "1996\/01\/01", "sr_to": null, "gov": null }, "geometry": { "type": "Point", "coordinates": [ 9.553, 34.17 ] } },
{ "type": "Feature", "properties": { "NAME_EN": "Hungary", "NAME_FR": "Hongrie", "sr_from": "1996\/01\/01", "sr_to": null, "gov": null }, "geometry": { "type": "Point", "coordinates": [ 19.405, 47.175 ] } },
{ "type": "Feature", "properties": { "NAME_EN": "Slovakia", "NAME_FR": "Slovaquie", "sr_from": "1996\/01\/01", "sr_to": null, "gov": null }, "geometry": { "type": "Point", "coordinates": [ 19.485, 48.71 ] } },
{ "type": "Feature", "properties": { "NAME_EN": "Liberia", "NAME_FR": "Liberia", "sr_from": "1996\/01\/01", "sr_to": null, "gov": null }, "geometry": { "type": "Point", "coordinates": [ -9.321, 6.455 ] } },
{ "type": "Feature", "properties": { "NAME_EN": "Austria", "NAME_FR": "Autriche", "sr_from": "1996\/01\/01", "sr_to": null, "gov": null }, "geometry": { "type": "Point", "coordinates": [ 14.139, 47.596 ] } },
{ "type": "Feature", "properties": { "NAME_EN": "Liechtenstein", "NAME_FR": "Liechtenstein", "sr_from": "1996\/01\/01", "sr_to": null, "gov": null }, "geometry": { "type": "Point", "coordinates": [ 9.541, 47.138 ] } },
{ "type": "Feature", "properties": { "NAME_EN": "Pakistan", "NAME_FR": "Pakistan", "sr_from": "1996\/01\/01", "sr_to": null, "gov": null }, "geometry": { "type": "Point", "coordinates": [ 69.43, 30.12 ] } },
{ "type": "Feature", "properties": { "NAME_EN": "San Marino", "NAME_FR": "Saint-Marin", "sr_from": "1996\/01\/01", "sr_to": null, "gov": null }, "geometry": { "type": "Point", "coordinates": [ 12.442, 43.936 ] } },
{ "type": "Feature", "properties": { "NAME_EN": "Monaco", "NAME_FR": "Monaco", "sr_from": "1996\/01\/01", "sr_to": null, "gov": null }, "geometry": { "type": "Point", "coordinates": [ 7.399, 43.74 ] } },
{ "type": "Feature", "properties": { "NAME_EN": "Andorra", "NAME_FR": "Andorre", "sr_from": "1996\/01\/01", "sr_to": null, "gov": null }, "geometry": { "type": "Point", "coordinates": [ 1.561, 42.541 ] } },
{ "type": "Feature", "properties": { "NAME_EN": "Ecuador", "NAME_FR": "Équateur", "sr_from": "1996\/01\/01", "sr_to": null, "gov": null }, "geometry": { "type": "Point", "coordinates": [ -78.772, -1.428 ] } },
{ "type": "Feature", "properties": { "NAME_EN": "Paraguay", "NAME_FR": "Paraguay", "sr_from": "1996\/01\/01", "sr_to": null, "gov": null }, "geometry": { "type": "Point", "coordinates": [ -58.377, -23.277 ] } },
{ "type": "Feature", "properties": { "NAME_EN": "Brazilian Island", "NAME_FR": "Ilha Brasileira", "sr_from": "1996\/01\/01", "sr_to": null, "gov": null }, "geometry": { "type": "Point", "coordinates": [ -57.623, -30.188 ] } },
{ "type": "Feature", "properties": { "NAME_EN": "Portugal", "NAME_FR": "Portugal", "sr_from": "1996\/01\/01", "sr_to": null, "gov": null }, "geometry": { "type": "Point", "coordinates": [ -8.572, 39.635 ] } },
{ "type": "Feature", "properties": { "NAME_EN": "Nepal", "NAME_FR": "Népal", "sr_from": "1996\/01\/01", "sr_to": null, "gov": null }, "geometry": { "type": "Point", "coordinates": [ 83.901, 28.26 ] } },
{ "type": "Feature", "properties": { "NAME_EN": "Gibraltar", "NAME_FR": "Gibraltar", "sr_from": "1996\/01\/01", "sr_to": null, "gov": null }, "geometry": { "type": "Point", "coordinates": [ -5.347, 36.129 ] } },
{ "type": "Feature", "properties": { "NAME_EN": "Siachen Glacier", "NAME_FR": "glacier de Siachen", "sr_from": "1996\/01\/01", "sr_to": null, "gov": null }, "geometry": { "type": "Point", "coordinates": [ 77.18, 35.391 ] } },
{ "type": "Feature", "properties": { "NAME_EN": "Southern Patagonian Ice Field", "NAME_FR": "champ de glace Sud de Patagonie", "sr_from": "1996\/01\/01", "sr_to": null, "gov": null }, "geometry": { "type": "Point", "coordinates": [ -73.319, -49.513 ] } },
{ "type": "Feature", "properties": { "NAME_EN": "Fiji", "NAME_FR": "Fidji", "sr_from": "1996\/01\/01", "sr_to": null, "gov": null }, "geometry": { "type": "Point", "coordinates": [ 163.41, -17.452 ] } },
{ "type": "Feature", "properties": { "NAME_EN": "New Caledonia", "NAME_FR": "Nouvelle-Calédonie", "sr_from": "1996\/01\/01", "sr_to": null, "gov": null }, "geometry": { "type": "Point", "coordinates": [ 165.705, -21.308 ] } },
{ "type": "Feature", "properties": { "NAME_EN": "Madagascar", "NAME_FR": "Madagascar", "sr_from": "1996\/01\/01", "sr_to": null, "gov": null }, "geometry": { "type": "Point", "coordinates": [ 46.687, -19.468 ] } },
{ "type": "Feature", "properties": { "NAME_EN": "Sri Lanka", "NAME_FR": "Sri Lanka", "sr_from": "1996\/01\/01", "sr_to": null, "gov": null }, "geometry": { "type": "Point", "coordinates": [ 80.703, 7.619 ] } },
{ "type": "Feature", "properties": { "NAME_EN": "Saint Pierre and Miquelon", "NAME_FR": "Saint-Pierre-et-Miquelon", "sr_from": "1996\/01\/01", "sr_to": null, "gov": null }, "geometry": { "type": "Point", "coordinates": [ -56.308, 46.931 ] } },
{ "type": "Feature", "properties": { "NAME_EN": "Pitcairn Islands", "NAME_FR": "Iles Pitcairn", "sr_from": "1996\/01\/01", "sr_to": null, "gov": null }, "geometry": { "type": "Point", "coordinates": [ -128.48, -24.413 ] } },
{ "type": "Feature", "properties": { "NAME_EN": "French Polynesia", "NAME_FR": "Polynésie française", "sr_from": "1996\/01\/01", "sr_to": null, "gov": null }, "geometry": { "type": "Point", "coordinates": [ -145.105, -15.319 ] } },
{ "type": "Feature", "properties": { "NAME_EN": "French Southern and Antarctic Lands", "NAME_FR": "Terres australes et antarctiques françaises", "sr_from": "1996\/01\/01", "sr_to": null, "gov": null }, "geometry": { "type": "Point", "coordinates": [ 69.029, -49.123 ] } },
{ "type": "Feature", "properties": { "NAME_EN": "Seychelles", "NAME_FR": "Seychelles", "sr_from": "1996\/01\/01", "sr_to": null, "gov": null }, "geometry": { "type": "Point", "coordinates": [ 52.04, -6.507 ] } },
{ "type": "Feature", "properties": { "NAME_EN": "Kiribati", "NAME_FR": "Kiribati", "sr_from": "1996\/01\/01", "sr_to": null, "gov": null }, "geometry": { "type": "Point", "coordinates": [ -51.621, 0.608 ] } },
{ "type": "Feature", "properties": { "NAME_EN": "Marshall Islands", "NAME_FR": "Îles Marshall", "sr_from": "1996\/01\/01", "sr_to": null, "gov": null }, "geometry": { "type": "Point", "coordinates": [ 170.097, 7.124 ] } },
{ "type": "Feature", "properties": { "NAME_EN": "Bermuda", "NAME_FR": "Bermudes", "sr_from": "1996\/01\/01", "sr_to": null, "gov": null }, "geometry": { "type": "Point", "coordinates": [ -64.763, 32.31 ] } },
{ "type": "Feature", "properties": { "NAME_EN": "Heard Island and McDonald Islands", "NAME_FR": "îles Heard-et-MacDonald", "sr_from": "1996\/01\/01", "sr_to": null, "gov": null }, "geometry": { "type": "Point", "coordinates": [ 73.505, -53.089 ] } },
{ "type": "Feature", "properties": { "NAME_EN": "Saint Helena", "NAME_FR": "Sainte-Hélène", "sr_from": "1996\/01\/01", "sr_to": null, "gov": null }, "geometry": { "type": "Point", "coordinates": [ -10.2, -27.151 ] } },
{ "type": "Feature", "properties": { "NAME_EN": "Mauritius", "NAME_FR": "Maurice", "sr_from": "1996\/01\/01", "sr_to": null, "gov": null }, "geometry": { "type": "Point", "coordinates": [ 57.849, -20.19 ] } },
{ "type": "Feature", "properties": { "NAME_EN": "Comoros", "NAME_FR": "Comores", "sr_from": "1996\/01\/01", "sr_to": null, "gov": null }, "geometry": { "type": "Point", "coordinates": [ 43.681, -11.885 ] } },
{ "type": "Feature", "properties": { "NAME_EN": "Cape Verde", "NAME_FR": "Cap-Vert", "sr_from": "1996\/01\/01", "sr_to": null, "gov": null }, "geometry": { "type": "Point", "coordinates": [ -23.977, 15.951 ] } },
{ "type": "Feature", "properties": { "NAME_EN": "Malta", "NAME_FR": "Malte", "sr_from": "1996\/01\/01", "sr_to": null, "gov": null }, "geometry": { "type": "Point", "coordinates": [ 14.404, 35.921 ] } },
{ "type": "Feature", "properties": { "NAME_EN": "Jersey", "NAME_FR": "Jersey", "sr_from": "1996\/01\/01", "sr_to": null, "gov": null }, "geometry": { "type": "Point", "coordinates": [ -2.127, 49.221 ] } },
{ "type": "Feature", "properties": { "NAME_EN": "Guernsey", "NAME_FR": "Guernesey", "sr_from": "1996\/01\/01", "sr_to": null, "gov": null }, "geometry": { "type": "Point", "coordinates": [ -2.53, 49.485 ] } },
{ "type": "Feature", "properties": { "NAME_EN": "Isle of Man", "NAME_FR": "île de Man", "sr_from": "1996\/01\/01", "sr_to": null, "gov": null }, "geometry": { "type": "Point", "coordinates": [ -4.534, 54.229 ] } },
{ "type": "Feature", "properties": { "NAME_EN": "Åland", "NAME_FR": "Åland", "sr_from": "1996\/01\/01", "sr_to": null, "gov": null }, "geometry": { "type": "Point", "coordinates": [ 20.055, 60.187 ] } },
{ "type": "Feature", "properties": { "NAME_EN": "Faroe Islands", "NAME_FR": "îles Féroé", "sr_from": "1996\/01\/01", "sr_to": null, "gov": null }, "geometry": { "type": "Point", "coordinates": [ -6.871, 62.077 ] } },
{ "type": "Feature", "properties": { "NAME_EN": "Australian Indian Ocean Territories", "NAME_FR": "Territoires extérieurs australiens de l'Océan Indien", "sr_from": "1996\/01\/01", "sr_to": null, "gov": null }, "geometry": { "type": "Point", "coordinates": [ 104.614, -10.694 ] } },
{ "type": "Feature", "properties": { "NAME_EN": "British Indian Ocean Territory", "NAME_FR": "Territoire britannique de l’océan Indien", "sr_from": "1996\/01\/01", "sr_to": null, "gov": null }, "geometry": { "type": "Point", "coordinates": [ 72.299, -7.145 ] } },
{ "type": "Feature", "properties": { "NAME_EN": "Singapore", "NAME_FR": "Singapour", "sr_from": "1996\/01\/01", "sr_to": null, "gov": null }, "geometry": { "type": "Point", "coordinates": [ 103.813, 1.359 ] } },
{ "type": "Feature", "properties": { "NAME_EN": "Norfolk Island", "NAME_FR": "Île Norfolk", "sr_from": "1996\/01\/01", "sr_to": null, "gov": null }, "geometry": { "type": "Point", "coordinates": [ 167.955, -29.035 ] } },
{ "type": "Feature", "properties": { "NAME_EN": "Cook Islands", "NAME_FR": "Îles Cook", "sr_from": "1996\/01\/01", "sr_to": null, "gov": null }, "geometry": { "type": "Point", "coordinates": [ -158.789, -19.892 ] } },
{ "type": "Feature", "properties": { "NAME_EN": "Tonga", "NAME_FR": "Tonga", "sr_from": "1996\/01\/01", "sr_to": null, "gov": null }, "geometry": { "type": "Point", "coordinates": [ -174.87, -20.09 ] } },
{ "type": "Feature", "properties": { "NAME_EN": "Wallis and Futuna", "NAME_FR": "Wallis-et-Futuna", "sr_from": "1996\/01\/01", "sr_to": null, "gov": null }, "geometry": { "type": "Point", "coordinates": [ -177.061, -13.74 ] } },
{ "type": "Feature", "properties": { "NAME_EN": "Samoa", "NAME_FR": "Samoa", "sr_from": "1996\/01\/01", "sr_to": null, "gov": null }, "geometry": { "type": "Point", "coordinates": [ -172.161, -13.755 ] } },
{ "type": "Feature", "properties": { "NAME_EN": "Solomon Islands", "NAME_FR": "Îles Salomon", "sr_from": "1996\/01\/01", "sr_to": null, "gov": null }, "geometry": { "type": "Point", "coordinates": [ 159.644, -8.916 ] } },
{ "type": "Feature", "properties": { "NAME_EN": "Tuvalu", "NAME_FR": "Tuvalu", "sr_from": "1996\/01\/01", "sr_to": null, "gov": null }, "geometry": { "type": "Point", "coordinates": [ 178.523, -7.763 ] } },
{ "type": "Feature", "properties": { "NAME_EN": "Maldives", "NAME_FR": "Maldives", "sr_from": "1996\/01\/01", "sr_to": null, "gov": null }, "geometry": { "type": "Point", "coordinates": [ 73.302, 3.835 ] } },
{ "type": "Feature", "properties": { "NAME_EN": "Nauru", "NAME_FR": "Nauru", "sr_from": "1996\/01\/01", "sr_to": null, "gov": null }, "geometry": { "type": "Point", "coordinates": [ 166.933, -0.521 ] } },
{ "type": "Feature", "properties": { "NAME_EN": "Federated States of Micronesia", "NAME_FR": "États fédérés de Micronésie", "sr_from": "1996\/01\/01", "sr_to": null, "gov": null }, "geometry": { "type": "Point", "coordinates": [ 155.239, 6.973 ] } },
{ "type": "Feature", "properties": { "NAME_EN": "South Georgia and the South Sandwich Islands", "NAME_FR": "Géorgie du Sud-et-les Îles Sandwich du Sud", "sr_from": "1996\/01\/01", "sr_to": null, "gov": null }, "geometry": { "type": "Point", "coordinates": [ -35.801, -54.731 ] } },
{ "type": "Feature", "properties": { "NAME_EN": "Falkland Islands", "NAME_FR": "îles Malouines", "sr_from": "1996\/01\/01", "sr_to": null, "gov": null }, "geometry": { "type": "Point", "coordinates": [ -59.377, -51.735 ] } },
{ "type": "Feature", "properties": { "NAME_EN": "Vanuatu", "NAME_FR": "Vanuatu", "sr_from": "1996\/01\/01", "sr_to": null, "gov": null }, "geometry": { "type": "Point", "coordinates": [ 167.706, -16.218 ] } },
{ "type": "Feature", "properties": { "NAME_EN": "Niue", "NAME_FR": "Niue", "sr_from": "1996\/01\/01", "sr_to": null, "gov": null }, "geometry": { "type": "Point", "coordinates": [ -169.869, -19.049 ] } },
{ "type": "Feature", "properties": { "NAME_EN": "American Samoa", "NAME_FR": "Samoa américaines", "sr_from": "1996\/01\/01", "sr_to": null, "gov": null }, "geometry": { "type": "Point", "coordinates": [ -170.399, -14.256 ] } },
{ "type": "Feature", "properties": { "NAME_EN": "Palau", "NAME_FR": "Palaos", "sr_from": "1996\/01\/01", "sr_to": null, "gov": null }, "geometry": { "type": "Point", "coordinates": [ 134.349, 7.2 ] } },
{ "type": "Feature", "properties": { "NAME_EN": "Guam", "NAME_FR": "Guam", "sr_from": "1996\/01\/01", "sr_to": null, "gov": null }, "geometry": { "type": "Point", "coordinates": [ 144.772, 13.444 ] } },
{ "type": "Feature", "properties": { "NAME_EN": "Northern Mariana Islands", "NAME_FR": "îles Mariannes du Nord", "sr_from": "1996\/01\/01", "sr_to": null, "gov": null }, "geometry": { "type": "Point", "coordinates": [ 145.6, 16.278 ] } },
{ "type": "Feature", "properties": { "NAME_EN": "Coral Sea Islands", "NAME_FR": "Îles de la mer de Corail", "sr_from": "1996\/01\/01", "sr_to": null, "gov": null }, "geometry": { "type": "Point", "coordinates": [ 154.39, -21.029 ] } },
{ "type": "Feature", "properties": { "NAME_EN": "Wake Island", "NAME_FR": "Wake", "sr_from": "1996\/01\/01", "sr_to": null, "gov": null }, "geometry": { "type": "Point", "coordinates": [ 114.928, 10.546 ] } },
{ "type": "Feature", "properties": { "NAME_EN": "Clipperton Island", "NAME_FR": "île Clipperton", "sr_from": "1996\/01\/01", "sr_to": null, "gov": null }, "geometry": { "type": "Point", "coordinates": [ -109.221, 10.297 ] } },
{ "type": "Feature", "properties": { "NAME_EN": "Macau", "NAME_FR": "Macao", "sr_from": "1996\/01\/01", "sr_to": null, "gov": null }, "geometry": { "type": "Point", "coordinates": [ 113.55, 22.158 ] } },
{ "type": "Feature", "properties": { "NAME_EN": "Ashmore and Cartier Islands", "NAME_FR": "Îles Ashmore-et-Cartier", "sr_from": "1996\/01\/01", "sr_to": null, "gov": null }, "geometry": { "type": "Point", "coordinates": [ 123.586, -12.433 ] } },
{ "type": "Feature", "properties": { "NAME_EN": "Bajo Nuevo Bank", "NAME_FR": "Banc de Bajo Nuevo", "sr_from": "1996\/01\/01", "sr_to": null, "gov": null }, "geometry": { "type": "Point", "coordinates": [ -79.988, 15.795 ] } },
{ "type": "Feature", "properties": { "NAME_EN": "Scarborough Shoal", "NAME_FR": "Récif de Scarborough", "sr_from": "1996\/01\/01", "sr_to": null, "gov": null }, "geometry": { "type": "Point", "coordinates": [ 117.754, 15.152 ] } },
{ "type": "Feature", "properties": { "NAME_EN": "Kingdom of Hawaii", "NAME_FR": "Royaume de Hawaï", "sr_from": "2017\/08\/22", "sr_to": null, "gov": null }, "geometry": { "type": "Point", "coordinates": [ -156.36, 20.261 ] } },
{ "type": "Feature", "properties": { "NAME_EN": "Quebec", "NAME_FR": "Québec", "sr_from": "2017\/12\/11", "sr_to": null, "gov": null }, "geometry": { "type": "Point", "coordinates": [ -70.177, 54.138 ] } },
{ "type": "Feature", "properties": { "NAME_EN": "Front Range Free Zone", "NAME_FR": "Zone Libre des Rocheuses Orientales", "sr_from": "2019\/01\/25", "sr_to": null, "gov": null }, "geometry": { "type": "Point", "coordinates": [ -104.923, 39.533 ] } },
{ "type": "Feature", "properties": { "NAME_EN": "Sioux", "NAME_FR": "Nation Sioux", "sr_from": "2018\/04\/25", "sr_to": null, "gov": null }, "geometry": { "type": "Point", "coordinates": [ -106.586, 45.426 ] } },
{ "type": "Feature", "properties": { "NAME_EN": "Athabaskan Council", "NAME_FR": "Conseil Athabaskan", "sr_from": "2018\/04\/25", "sr_to": null, "gov": null }, "geometry": { "type": "Point", "coordinates": [ -129.168, 62.004 ] } },
{ "type": "Feature", "properties": { "NAME_EN": "Confederation of American States - CAS", "NAME_FR": "États Américains Confédérés - CAS", "sr_from": "2034\/12\/19", "sr_to": null, "gov": null }, "geometry": { "type": "Point", "coordinates": [ -81.798, 26.119 ] } },
{ "type": "Feature", "properties": { "NAME_EN": "Confederation of American States - CAS", "NAME_FR": "États Américains Confédérés - CAS", "sr_from": "2034\/12\/19", "sr_to": null, "gov": null }, "geometry": { "type": "Point", "coordinates": [ -87.012, 29.375 ] } },
{ "type": "Feature", "properties": { "NAME_EN": "Tír Tairngire", "NAME_FR": "Tír Tairngire", "sr_from": "2035\/03\/11", "sr_to": null, "gov": null }, "geometry": { "type": "Point", "coordinates": [ -120.642, 43.669 ] } },
{ "type": "Feature", "properties": { "NAME_EN": "Confederation of American States - CAS", "NAME_FR": "États Américains Confédérés - CAS", "sr_from": "2036\/01\/11", "sr_to": null, "gov": null }, "geometry": { "type": "Point", "coordinates": [ -89.605, 33.61 ] } },
{ "type": "Feature", "properties": { "NAME_EN": "United Canadian and American States - UCAS", "NAME_FR": "États-Unis Canadiens et Américains - UCAS", "sr_from": "2036\/03\/21", "sr_to": null, "gov": null }, "geometry": { "type": "Point", "coordinates": [ -85.921, 43.833 ] } },
{ "type": "Feature", "properties": { "NAME_EN": "disputed", "NAME_FR": "disputé", "sr_from": "2036\/03\/21", "sr_to": null, "gov": "no" }, "geometry": { "type": "Point", "coordinates": [ -121.948, 41.366 ] } },
{ "type": "Feature", "properties": { "NAME_EN": "Algonkian-Manitou Council", "NAME_FR": "Conseil Algonquin-Manitou", "sr_from": "2045\/10\/13", "sr_to": null, "gov": null }, "geometry": { "type": "Point", "coordinates": [ -96.321, 53.961 ] } },
{ "type": "Feature", "properties": { "NAME_EN": "Trans-Polar Aleut Nation", "NAME_FR": "Nation Trans-polaire Aléoute", "sr_from": "2018\/04\/25", "sr_to": null, "gov": null }, "geometry": { "type": "Point", "coordinates": [ -38.045, 75.427 ] } },
{ "type": "Feature", "properties": { "NAME_EN": "Salish-Shidhe Council", "NAME_FR": "Conseil Salish-Shidhe", "sr_from": "2035\/03\/11", "sr_to": null, "gov": null }, "geometry": { "type": "Point", "coordinates": [ -119.136, 48.602 ] } },
{ "type": "Feature", "properties": { "NAME_EN": "Yucatán", "NAME_FR": "Yucatán", "sr_from": "2064\/06\/05", "sr_to": null, "gov": null }, "geometry": { "type": "Point", "coordinates": [ -89.224, 19.656 ] } },
{ "type": "Feature", "properties": { "NAME_EN": "Tsimshian Protectorate", "NAME_FR": "Protectorat du Tsimshian", "sr_from": "2064\/12\/01", "sr_to": null, "gov": null }, "geometry": { "type": "Point", "coordinates": [ -125.427, 54.771 ] } },
{ "type": "Feature", "properties": { "NAME_EN": "Azania", "NAME_FR": "Alliance Azanienne", "sr_from": "2040\/01\/01", "sr_to": null, "gov": null }, "geometry": { "type": "Point", "coordinates": [ 22.579, -25.744 ] } },
{ "type": "Feature", "properties": { "NAME_EN": "Khalistan", "NAME_FR": "Khalistan", "sr_from": "2030\/01\/01", "sr_to": null, "gov": null }, "geometry": { "type": "Point", "coordinates": [ 76.129, 31.327 ] } },
{ "type": "Feature", "properties": { "NAME_EN": "India", "NAME_FR": "Inde", "sr_from": "2033\/01\/01", "sr_to": null, "gov": null }, "geometry": { "type": "Point", "coordinates": [ 78.344, 22.52 ] } },
{ "type": "Feature", "properties": { "NAME_EN": "Bangla Commonwealth", "NAME_FR": "Bangla Commonwealth", "sr_from": "2033\/01\/01", "sr_to": null, "gov": null }, "geometry": { "type": "Point", "coordinates": [ 92.005, 25.745 ] } },
{ "type": "Feature", "properties": { "NAME_EN": "Arabian Califate", "NAME_FR": "Califat d'Arabie", "sr_from": "2063\/12\/01", "sr_to": null, "gov": null }, "geometry": { "type": "Point", "coordinates": [ 46.158, 23.016 ] } },
{ "type": "Feature", "properties": { "NAME_EN": "Egypt", "NAME_FR": "Égypte", "sr_from": "2067\/01\/01", "sr_to": null, "gov": null }, "geometry": { "type": "Point", "coordinates": [ 25.046, 24.234 ] } },
{ "type": "Feature", "properties": { "NAME_EN": "Israel", "NAME_FR": "Israël", "sr_from": "2072\/01\/01", "sr_to": null, "gov": null }, "geometry": { "type": "Point", "coordinates": [ 34.255, 30.674 ] } },
{ "type": "Feature", "properties": { "NAME_EN": "Angola", "NAME_FR": "Angola", "sr_from": "2011\/01\/01", "sr_to": null, "gov": null }, "geometry": { "type": "Point", "coordinates": [ 17.566, -12.387 ] } },
{ "type": "Feature", "properties": { "NAME_EN": "SOX", "NAME_FR": "SOX", "sr_from": "2008\/03\/05", "sr_to": null, "gov": "no" }, "geometry": { "type": "Point", "coordinates": [ 6.477, 49.413 ] } },
{ "type": "Feature", "properties": { "NAME_EN": "Syria", "NAME_FR": "Syrie", "sr_from": "2072\/01\/01", "sr_to": null, "gov": null }, "geometry": { "type": "Point", "coordinates": [ 38.304, 34.899 ] } },
{ "type": "Feature", "properties": { "NAME_EN": "Iran", "NAME_FR": "Iran", "sr_from": "2043\/06\/14", "sr_to": null, "gov": null }, "geometry": { "type": "Point", "coordinates": [ 54.871, 32.457 ] } },
{ "type": "Feature", "properties": { "NAME_EN": "Iraq", "NAME_FR": "Irak", "sr_from": "2043\/06\/14", "sr_to": null, "gov": null }, "geometry": { "type": "Point", "coordinates": [ 43.67, 32.767 ] } },
{ "type": "Feature", "properties": { "NAME_EN": "Kurdistan", "NAME_FR": "Kurdistan", "sr_from": "2043\/06\/14", "sr_to": null, "gov": null }, "geometry": { "type": "Point", "coordinates": [ 43.286, 37.56 ] } },
{ "type": "Feature", "properties": { "NAME_EN": "Kingdoms of Nigeria", "NAME_FR": "Royaumes du Nigeria", "sr_from": "2011\/01\/01", "sr_to": null, "gov": null }, "geometry": { "type": "Point", "coordinates": [ 9.67, 8.598 ] } },
{ "type": "Feature", "properties": { "NAME_EN": "Free City of Sekondi", "NAME_FR": "Cité Indépendante de Sekondi", "sr_from": "2023\/01\/01", "sr_to": null, "gov": null }, "geometry": { "type": "Point", "coordinates": [ -1.765, 4.998 ] } },
{ "type": "Feature", "properties": { "NAME_EN": "Anyi", "NAME_FR": "Anyi", "sr_from": "2023\/06\/02", "sr_to": null, "gov": null }, "geometry": { "type": "Point", "coordinates": [ -3.83, 6.664 ] } },
{ "type": "Feature", "properties": { "NAME_EN": "Baatonum", "NAME_FR": "Baatonum", "sr_from": "2011\/01\/01", "sr_to": null, "gov": null }, "geometry": { "type": "Point", "coordinates": [ 2.141, 11.086 ] } },
{ "type": "Feature", "properties": { "NAME_EN": "Kingdom of Benin", "NAME_FR": "Royaume du Benin", "sr_from": "2011\/01\/01", "sr_to": null, "gov": null }, "geometry": { "type": "Point", "coordinates": [ 1.459, 8.247 ] } },
{ "type": "Feature", "properties": { "NAME_EN": "Asante Nation", "NAME_FR": "Nation Asante", "sr_from": "2026\/01\/01", "sr_to": null, "gov": null }, "geometry": { "type": "Point", "coordinates": [ -0.734, 6.557 ] } },
{ "type": "Feature", "properties": { "NAME_EN": "Asamando", "NAME_FR": "Asamando", "sr_from": "2030\/06\/01", "sr_to": null, "gov": null }, "geometry": { "type": "Point", "coordinates": [ -1.769, 8.972 ] } },
{ "type": "Feature", "properties": { "NAME_EN": "Kenya", "NAME_FR": "Kenya", "sr_from": "2048\/01\/01", "sr_to": null, "gov": null }, "geometry": { "type": "Point", "coordinates": [ 37.572, -0.021 ] } },
{ "type": "Feature", "properties": { "NAME_EN": "Baule Empire", "NAME_FR": "Empire Baule", "sr_from": "2060\/01\/01", "sr_to": null, "gov": null }, "geometry": { "type": "Point", "coordinates": [ -5.395, 7.203 ] } },
{ "type": "Feature", "properties": { "NAME_EN": "Gold and Ivory Coast Tribal Lands", "NAME_FR": "Terres Tribales de la Cote d'Or et d'Ivoire", "sr_from": "2063\/01\/01", "sr_to": null, "gov": "no" }, "geometry": { "type": "Point", "coordinates": [ -9.338, 10.33 ] } },
{ "type": "Feature", "properties": { "NAME_EN": "Congo Tribal Area", "NAME_FR": "Aire Tribale du Congo", "sr_from": "2069\/12\/24", "sr_to": null, "gov": "no" }, "geometry": { "type": "Point", "coordinates": [ 23.576, 1.544 ] } },
{ "type": "Feature", "properties": { "NAME_EN": "Congo DMZ", "NAME_FR": "DMZ du Congo", "sr_from": "2069\/12\/24", "sr_to": null, "gov": "no" }, "geometry": { "type": "Point", "coordinates": [ 31.748, -0.352 ] } },
{ "type": "Feature", "properties": { "NAME_EN": "Ethiomalian Territories", "NAME_FR": "Territoires Ethiomaliens", "sr_from": "2038\/01\/01", "sr_to": null, "gov": "no" }, "geometry": { "type": "Point", "coordinates": [ 42.075, 7.322 ] } },
{ "type": "Feature", "properties": { "NAME_EN": "Sheba", "NAME_FR": "Sheba", "sr_from": "2038\/01\/01", "sr_to": null, "gov": null }, "geometry": { "type": "Point", "coordinates": [ 39.066, 14.276 ] } },
{ "type": "Feature", "properties": { "NAME_EN": "Mali-Faso", "NAME_FR": "Mali-Faso", "sr_from": "2063\/01\/01", "sr_to": null, "gov": null }, "geometry": { "type": "Point", "coordinates": [ -3.083, 15.908 ] } },
{ "type": "Feature", "properties": { "NAME_EN": "Mauritania", "NAME_FR": "Mauritanie", "sr_from": "2060\/01\/01", "sr_to": null, "gov": null }, "geometry": { "type": "Point", "coordinates": [ -10.696, 19.21 ] } },
{ "type": "Feature", "properties": { "NAME_EN": "Algeria", "NAME_FR": "Algérie", "sr_from": "2060\/01\/01", "sr_to": null, "gov": null }, "geometry": { "type": "Point", "coordinates": [ 1.763, 28.005 ] } },
{ "type": "Feature", "properties": { "NAME_EN": "Morocco", "NAME_FR": "Maroc", "sr_from": "2060\/01\/01", "sr_to": null, "gov": null }, "geometry": { "type": "Point", "coordinates": [ -8.954, 29.008 ] } },
{ "type": "Feature", "properties": { "NAME_EN": "Kachin State", "NAME_FR": "Kachin", "sr_from": "2022\/01\/01", "sr_to": null, "gov": null }, "geometry": { "type": "Point", "coordinates": [ 97.337, 26.099 ] } },
{ "type": "Feature", "properties": { "NAME_EN": "Shan State", "NAME_FR": "Shan", "sr_from": "2022\/01\/01", "sr_to": null, "gov": null }, "geometry": { "type": "Point", "coordinates": [ 98.117, 21.731 ] } },
{ "type": "Feature", "properties": { "NAME_EN": "Burma", "NAME_FR": "Birmanie", "sr_from": "2041\/01\/01", "sr_to": null, "gov": null }, "geometry": { "type": "Point", "coordinates": [ 95.682, 20.007 ] } },
{ "type": "Feature", "properties": { "NAME_EN": "Thailand", "NAME_FR": "Thaïlande", "sr_from": "2047\/08\/04", "sr_to": null, "gov": null }, "geometry": { "type": "Point", "coordinates": [ 101.006, 15.524 ] } },
{ "type": "Feature", "properties": { "NAME_EN": "Pattani", "NAME_FR": "Pattani", "sr_from": "2047\/08\/04", "sr_to": null, "gov": null }, "geometry": { "type": "Point", "coordinates": [ 100.95, 6.563 ] } },
{ "type": "Feature", "properties": { "NAME_EN": "Tibet", "NAME_FR": "Tibet", "sr_from": "2012\/01\/12", "sr_to": null, "gov": null }, "geometry": { "type": "Point", "coordinates": [ 89.155, 32.205 ] } },
{ "type": "Feature", "properties": { "NAME_EN": "Hong Kong Free Enterprise Zone", "NAME_FR": "Zone de libre entreprise de Hong Kong", "sr_from": "2015\/03\/18", "sr_to": null, "gov": null }, "geometry": { "type": "Point", "coordinates": [ 114.131, 22.385 ] } },
{ "type": "Feature", "properties": { "NAME_EN": "Gansu", "NAME_FR": "Gansu", "sr_from": "2018\/03\/17", "sr_to": null, "gov": "no" }, "geometry": { "type": "Point", "coordinates": [ 98.854, 37.272 ] } },
{ "type": "Feature", "properties": { "NAME_EN": "Ningxia", "NAME_FR": "Ningxia", "sr_from": "2018\/03\/17", "sr_to": null, "gov": "no" }, "geometry": { "type": "Point", "coordinates": [ 106.162, 37.285 ] } },
{ "type": "Feature", "properties": { "NAME_EN": "Hainan", "NAME_FR": "Hainan", "sr_from": "2019\/01\/01", "sr_to": null, "gov": "no" }, "geometry": { "type": "Point", "coordinates": [ 109.741, 19.199 ] } },
{ "type": "Feature", "properties": { "NAME_EN": "Guangxi", "NAME_FR": "Guangxi", "sr_from": "2019\/01\/01", "sr_to": null, "gov": "no" }, "geometry": { "type": "Point", "coordinates": [ 108.779, 23.846 ] } },
{ "type": "Feature", "properties": { "NAME_EN": "Mongolia", "NAME_FR": "Mongolie", "sr_from": "2028\/01\/01", "sr_to": null, "gov": null }, "geometry": { "type": "Point", "coordinates": [ 103.388, 46.001 ] } },
{ "type": "Feature", "properties": { "NAME_EN": "Shaanxi", "NAME_FR": "Shaanxi", "sr_from": "2028\/01\/01", "sr_to": null, "gov": null }, "geometry": { "type": "Point", "coordinates": [ 110.039, 37.11 ] } },
{ "type": "Feature", "properties": { "NAME_EN": "Canton Confederation", "NAME_FR": "Confédération de Canton", "sr_from": "2044\/01\/01", "sr_to": null, "gov": null }, "geometry": { "type": "Point", "coordinates": [ 114.265, 26.319 ] } },
{ "type": "Feature", "properties": { "NAME_EN": "Taiwan", "NAME_FR": "Taïwan", "sr_from": "2044\/01\/01", "sr_to": null, "gov": null }, "geometry": { "type": "Point", "coordinates": [ 120.951, 23.76 ] } },
{ "type": "Feature", "properties": { "NAME_EN": "Coastal Provinces", "NAME_FR": "Provinces Côtières", "sr_from": "2044\/01\/01", "sr_to": null, "gov": "no" }, "geometry": { "type": "Point", "coordinates": [ 119.047, 33.593 ] } },
{ "type": "Feature", "properties": { "NAME_EN": "Yunnan", "NAME_FR": "Yunnan", "sr_from": "2048\/08\/19", "sr_to": null, "gov": "no" }, "geometry": { "type": "Point", "coordinates": [ 101.293, 24.828 ] } },
{ "type": "Feature", "properties": { "NAME_EN": "Sichuan", "NAME_FR": "Sichuan", "sr_from": "2048\/08\/19", "sr_to": null, "gov": null }, "geometry": { "type": "Point", "coordinates": [ 105.807, 29.946 ] } },
{ "type": "Feature", "properties": { "NAME_EN": "Henan", "NAME_FR": "Henan", "sr_from": "2048\/08\/19", "sr_to": null, "gov": null }, "geometry": { "type": "Point", "coordinates": [ 115.221, 32.991 ] } },
{ "type": "Feature", "properties": { "NAME_EN": "Beijing", "NAME_FR": "Pekin", "sr_from": "2061\/01\/01", "sr_to": null, "gov": null }, "geometry": { "type": "Point", "coordinates": [ 116.407, 40.177 ] } },
{ "type": "Feature", "properties": { "NAME_EN": "Republic of China", "NAME_FR": "République de Chine", "sr_from": "2061\/01\/01", "sr_to": null, "gov": null }, "geometry": { "type": "Point", "coordinates": [ 116.211, 39.591 ] } },
{ "type": "Feature", "properties": { "NAME_EN": "Turkestan", "NAME_FR": "Turkestan", "sr_from": "2041\/01\/01", "sr_to": null, "gov": null }, "geometry": { "type": "Point", "coordinates": [ 71.389, 45.185 ] } },
{ "type": "Feature", "properties": { "NAME_EN": "Dayak Council of Borneo and Sulawesi", "NAME_FR": "Conseil Dayak de Bornéo et Sulawesi", "sr_from": "2012\/01\/01", "sr_to": null, "gov": null }, "geometry": { "type": "Point", "coordinates": [ 114.221, 0.862 ] } },
{ "type": "Feature", "properties": { "NAME_EN": "Malaysia", "NAME_FR": "Malaisie", "sr_from": "2012\/01\/01", "sr_to": null, "gov": null }, "geometry": { "type": "Point", "coordinates": [ 102.175, 4.041 ] } },
{ "type": "Feature", "properties": { "NAME_EN": "Enlighted Kingdom of Bali and Lombok", "NAME_FR": "Royaume Lumineux de Bali et Lombok", "sr_from": "2015\/01\/01", "sr_to": null, "gov": null }, "geometry": { "type": "Point", "coordinates": [ 115.685, -8.46 ] } },
{ "type": "Feature", "properties": { "NAME_EN": "East Timor", "NAME_FR": "Timor oriental", "sr_from": "2014\/01\/01", "sr_to": null, "gov": "no" }, "geometry": { "type": "Point", "coordinates": [ 125.851, -8.824 ] } },
{ "type": "Feature", "properties": { "NAME_EN": "Sumatran Alliance", "NAME_FR": "Alliance de Sumatra", "sr_from": "2019\/01\/01", "sr_to": null, "gov": null }, "geometry": { "type": "Point", "coordinates": [ 101.642, -0.481 ] } },
{ "type": "Feature", "properties": { "NAME_EN": "Javanese Republic", "NAME_FR": "République Javanaise", "sr_from": "2019\/01\/01", "sr_to": null, "gov": null }, "geometry": { "type": "Point", "coordinates": [ 110.078, -7.288 ] } },
{ "type": "Feature", "properties": { "NAME_EN": "Indonesia", "NAME_FR": "Indonésie", "sr_from": "2025\/01\/01", "sr_to": null, "gov": "no" }, "geometry": { "type": "Point", "coordinates": [ 122.927, -3.548 ] } },
{ "type": "Feature", "properties": { "NAME_EN": "Korea", "NAME_FR": "Corée", "sr_from": "2006\/11\/17", "sr_to": null, "gov": null }, "geometry": { "type": "Point", "coordinates": [ 127.462, 38.614 ] } },
{ "type": "Feature", "properties": { "NAME_EN": "New Zealand \/ Aotearoa", "NAME_FR": "Nouvelle-Zélande \/ Aotearoa", "sr_from": "2012\/01\/01", "sr_to": null, "gov": null }, "geometry": { "type": "Point", "coordinates": [ 171.315, -42.056 ] } },
{ "type": "Feature", "properties": { "NAME_EN": "Free City of Sydney", "NAME_FR": "Cité Libre de Sydney", "sr_from": "2030\/01\/01", "sr_to": null, "gov": null }, "geometry": { "type": "Point", "coordinates": [ 151.001, -33.86 ] } },
{ "type": "Feature", "properties": { "NAME_EN": "Yakut", "NAME_FR": "Yakoutie", "sr_from": "2031\/01\/01", "sr_to": null, "gov": null }, "geometry": { "type": "Point", "coordinates": [ 109.94, 66.043 ] } },
{ "type": "Feature", "properties": { "NAME_EN": "Imperial Japan", "NAME_FR": "Empire Japonais", "sr_from": "2040\/01\/01", "sr_to": null, "gov": null }, "geometry": { "type": "Point", "coordinates": [ 133.973, 31.898 ] } },
{ "type": "Feature", "properties": { "NAME_EN": "Russia", "NAME_FR": "Russie", "sr_from": "2040\/01\/01", "sr_to": null, "gov": null }, "geometry": { "type": "Point", "coordinates": [ 67.197, 57.755 ] } },
{ "type": "Feature", "properties": { "NAME_EN": "Transcaucasia", "NAME_FR": "Fédération Transcaucasienne", "sr_from": "2035\/01\/01", "sr_to": null, "gov": null }, "geometry": { "type": "Point", "coordinates": [ 45.562, 41.036 ] } },
{ "type": "Feature", "properties": { "NAME_EN": "Turkey", "NAME_FR": "Turquie", "sr_from": "2042\/01\/01", "sr_to": null, "gov": null }, "geometry": { "type": "Point", "coordinates": [ 31.311, 39.21 ] } },
{ "type": "Feature", "properties": { "NAME_EN": "Free City of Constantinople", "NAME_FR": "Cité Libre de Constantinople", "sr_from": "2042\/01\/01", "sr_to": null, "gov": null }, "geometry": { "type": "Point", "coordinates": [ 28.893, 41.155 ] } },
{ "type": "Feature", "properties": { "NAME_EN": "East Anatolia", "NAME_FR": "Anatolie de l'Est", "sr_from": "2043\/06\/14", "sr_to": null, "gov": null }, "geometry": { "type": "Point", "coordinates": [ 37.17, 39.076 ] } },
{ "type": "Feature", "properties": { "NAME_EN": "Cyprus", "NAME_FR": "Chypre", "sr_from": "2037\/01\/01", "sr_to": null, "gov": "no" }, "geometry": { "type": "Point", "coordinates": [ 33.229, 35.051 ] } },
{ "type": "Feature", "properties": { "NAME_EN": "Afghanistan", "NAME_FR": "Afghanistan", "sr_from": "2030\/01\/01", "sr_to": null, "gov": "no" }, "geometry": { "type": "Point", "coordinates": [ 66.048, 33.914 ] } },
{ "type": "Feature", "properties": { "NAME_EN": "United Kingdom", "NAME_FR": "Royaume-Uni", "sr_from": "2014\/06\/23", "sr_to": null, "gov": null }, "geometry": { "type": "Point", "coordinates": [ -2.706, 54.331 ] } },
{ "type": "Feature", "properties": { "NAME_EN": "Tír na nÓg", "NAME_FR": "Tír na nÓg", "sr_from": "2034\/12\/25", "sr_to": null, "gov": null }, "geometry": { "type": "Point", "coordinates": [ -7.881, 53.461 ] } },
{ "type": "Feature", "properties": { "NAME_EN": "Thule Protectorate", "NAME_FR": "Protectorat de Thulé", "sr_from": "2029\/01\/01", "sr_to": null, "gov": null }, "geometry": { "type": "Point", "coordinates": [ -18.594, 65.026 ] } },
{ "type": "Feature", "properties": { "NAME_EN": "Netherlands", "NAME_FR": "Pays-Bas", "sr_from": "2011\/02\/09", "sr_to": null, "gov": null }, "geometry": { "type": "Point", "coordinates": [ 5.544, 52.047 ] } },
{ "type": "Feature", "properties": { "NAME_EN": "Denmark", "NAME_FR": "Danemark", "sr_from": "2011\/02\/09", "sr_to": null, "gov": null }, "geometry": { "type": "Point", "coordinates": [ 10.101, 55.981 ] } },
{ "type": "Feature", "properties": { "NAME_EN": "Free State of California", "NAME_FR": "État libre de Californie", "sr_from": "2069\/03\/08", "sr_to": null, "gov": null }, "geometry": { "type": "Point", "coordinates": [ -121.137, 38.173 ] } },
{ "type": "Feature", "properties": { "NAME_EN": "Pueblo Corporate Council", "NAME_FR": "Conseil Corporatif Pueblo", "sr_from": "2069\/03\/08", "sr_to": null, "gov": null }, "geometry": { "type": "Point", "coordinates": [ -111.752, 37.746 ] } },
{ "type": "Feature", "properties": { "NAME_EN": "Aztlan", "NAME_FR": "Aztlan", "sr_from": "2069\/03\/08", "sr_to": null, "gov": null }, "geometry": { "type": "Point", "coordinates": [ -82.211, 9.651 ] } },
{ "type": "Feature", "properties": { "NAME_EN": "Aztlan", "NAME_FR": "Aztlan", "sr_from": "2069\/03\/08", "sr_to": null, "gov": null }, "geometry": { "type": "Point", "coordinates": [ -98.091, 22.206 ] } },
{ "type": "Feature", "properties": { "NAME_EN": "Flanders", "NAME_FR": "Flandres", "sr_from": "2018\/01\/01", "sr_to": null, "gov": null }, "geometry": { "type": "Point", "coordinates": [ 4.211, 51.041 ] } },
{ "type": "Feature", "properties": { "NAME_EN": "Free City of Brussels", "NAME_FR": "Cité Libre de Bruxelles", "sr_from": "2018\/01\/01", "sr_to": null, "gov": null }, "geometry": { "type": "Point", "coordinates": [ 4.37, 50.837 ] } },
{ "type": "Feature", "properties": { "NAME_EN": "Spain", "NAME_FR": "Espagne", "sr_from": "2029\/02\/08", "sr_to": null, "gov": null }, "geometry": { "type": "Point", "coordinates": [ -3.626, 40.348 ] } },
{ "type": "Feature", "properties": { "NAME_EN": "Euskal Herria", "NAME_FR": "Euskal Herria", "sr_from": "2029\/02\/08", "sr_to": null, "gov": null }, "geometry": { "type": "Point", "coordinates": [ -2.183, 42.719 ] } },
{ "type": "Feature", "properties": { "NAME_EN": "The Caribbean Ligue", "NAME_FR": "Ligue des Caraïbes", "sr_from": "2034\/12\/19", "sr_to": null, "gov": null }, "geometry": { "type": "Point", "coordinates": [ -75.296, 20.517 ] } },
{ "type": "Feature", "properties": { "NAME_EN": "Slovenia", "NAME_FR": "Slovénie", "sr_from": "2037\/01\/01", "sr_to": null, "gov": null }, "geometry": { "type": "Point", "coordinates": [ 14.9, 46.208 ] } },
{ "type": "Feature", "properties": { "NAME_EN": "Dinaric Collective", "NAME_FR": "Collectif Dinarique", "sr_from": "2037\/01\/01", "sr_to": null, "gov": null }, "geometry": { "type": "Point", "coordinates": [ 16.221, 44.517 ] } },
{ "type": "Feature", "properties": { "NAME_EN": "Sarajevo Enclave", "NAME_FR": "Enclave de Sarajevo", "sr_from": "2037\/01\/01", "sr_to": null, "gov": null }, "geometry": { "type": "Point", "coordinates": [ 18.337, 43.968 ] } },
{ "type": "Feature", "properties": { "NAME_EN": "disputed", "NAME_FR": "disputé", "sr_from": "2037\/01\/01", "sr_to": null, "gov": "no" }, "geometry": { "type": "Point", "coordinates": [ 19.47, 44.134 ] } },
{ "type": "Feature", "properties": { "NAME_EN": "Montenegro", "NAME_FR": "Montenegro", "sr_from": "2037\/01\/01", "sr_to": null, "gov": null }, "geometry": { "type": "Point", "coordinates": [ 19.125, 42.867 ] } },
{ "type": "Feature", "properties": { "NAME_EN": "Albania", "NAME_FR": "Albanie", "sr_from": "2037\/01\/01", "sr_to": null, "gov": null }, "geometry": { "type": "Point", "coordinates": [ 19.97, 41.793 ] } },
{ "type": "Feature", "properties": { "NAME_EN": "Free Macedonia", "NAME_FR": "Macédoine Libre", "sr_from": "2037\/01\/01", "sr_to": null, "gov": null }, "geometry": { "type": "Point", "coordinates": [ 21.549, 41.973 ] } },
{ "type": "Feature", "properties": { "NAME_EN": "Bulgaria", "NAME_FR": "Bulgarie", "sr_from": "2037\/01\/01", "sr_to": null, "gov": null }, "geometry": { "type": "Point", "coordinates": [ 22.428, 42.812 ] } },
{ "type": "Feature", "properties": { "NAME_EN": "Novi Pazar Enclave", "NAME_FR": "Enclave de Novi Pazar", "sr_from": "2037\/01\/01", "sr_to": null, "gov": null }, "geometry": { "type": "Point", "coordinates": [ 20.136, 43.054 ] } },
{ "type": "Feature", "properties": { "NAME_EN": "disputed", "NAME_FR": "disputé", "sr_from": "2037\/01\/01", "sr_to": null, "gov": "no" }, "geometry": { "type": "Point", "coordinates": [ 17.465, 44.295 ] } },
{ "type": "Feature", "properties": { "NAME_EN": "Serbia", "NAME_FR": "Serbie", "sr_from": "2037\/01\/01", "sr_to": null, "gov": null }, "geometry": { "type": "Point", "coordinates": [ 21.014, 43.947 ] } },
{ "type": "Feature", "properties": { "NAME_EN": "Romania", "NAME_FR": "Roumanie", "sr_from": "2037\/01\/01", "sr_to": null, "gov": null }, "geometry": { "type": "Point", "coordinates": [ 24.318, 45.182 ] } },
{ "type": "Feature", "properties": { "NAME_EN": "Vojvodina", "NAME_FR": "Vojvodine", "sr_from": "2037\/01\/01", "sr_to": null, "gov": null }, "geometry": { "type": "Point", "coordinates": [ 19.857, 45.515 ] } },
{ "type": "Feature", "properties": { "NAME_EN": "Bulgaria", "NAME_FR": "Bulgarie", "sr_from": "2037\/01\/01", "sr_to": null, "gov": null }, "geometry": { "type": "Point", "coordinates": [ 25.24, 43.031 ] } },
{ "type": "Feature", "properties": { "NAME_EN": "Ukraine", "NAME_FR": "Ukraine", "sr_from": "2037\/01\/01", "sr_to": null, "gov": null }, "geometry": { "type": "Point", "coordinates": [ 31.205, 48.988 ] } },
{ "type": "Feature", "properties": { "NAME_EN": "Ukrainian Protectorate", "NAME_FR": "Protectorat Ukrainien", "sr_from": "2037\/01\/01", "sr_to": null, "gov": null }, "geometry": { "type": "Point", "coordinates": [ 25.655, 46.825 ] } },
{ "type": "Feature", "properties": { "NAME_EN": "Brasov-Covasna Enclave", "NAME_FR": "Enclave de Brasov-Covasna", "sr_from": "2037\/01\/01", "sr_to": null, "gov": null }, "geometry": { "type": "Point", "coordinates": [ 25.811, 45.407 ] } },
{ "type": "Feature", "properties": { "NAME_EN": "Kosovo", "NAME_FR": "Kosovo", "sr_from": "2037\/01\/01", "sr_to": null, "gov": null }, "geometry": { "type": "Point", "coordinates": [ 21.032, 42.722 ] } },
{ "type": "Feature", "properties": { "NAME_EN": "Allied Islamic Territories", "NAME_FR": "Territoires Islamiques Alliés", "sr_from": "2037\/01\/01", "sr_to": null, "gov": null }, "geometry": { "type": "Point", "coordinates": [ 18.246, 44.325 ] } },
{ "type": "Feature", "properties": { "NAME_EN": "Greece", "NAME_FR": "Grèce", "sr_from": "2037\/01\/01", "sr_to": null, "gov": null }, "geometry": { "type": "Point", "coordinates": [ 22.549, 39.267 ] } },
{ "type": "Feature", "properties": { "NAME_EN": "disputed", "NAME_FR": "disputé", "sr_from": "2037\/01\/01", "sr_to": null, "gov": "no" }, "geometry": { "type": "Point", "coordinates": [ 24.651, 41.645 ] } },
{ "type": "Feature", "properties": { "NAME_EN": "Duchy of Pomorya", "NAME_FR": "Duché de Pomorya", "sr_from": "2033\/01\/28", "sr_to": null, "gov": null }, "geometry": { "type": "Point", "coordinates": [ 13.45, 54.14 ] } },
{ "type": "Feature", "properties": { "NAME_EN": "France", "NAME_FR": "France", "sr_from": "2028\/01\/01", "sr_to": null, "gov": null }, "geometry": { "type": "Point", "coordinates": [ -0.97, 44.383 ] } },
{ "type": "Feature", "properties": { "NAME_EN": "Free City of Berlin", "NAME_FR": "Cité Libre de Berlin", "sr_from": "2053\/01\/01", "sr_to": null, "gov": null }, "geometry": { "type": "Point", "coordinates": [ 13.398, 52.487 ] } },
{ "type": "Feature", "properties": { "NAME_EN": "Czech Republic", "NAME_FR": "Tchéquie", "sr_from": "2063\/01\/01", "sr_to": null, "gov": null }, "geometry": { "type": "Point", "coordinates": [ 15.208, 49.744 ] } },
{ "type": "Feature", "properties": { "NAME_EN": "Allied German States", "NAME_FR": "États allemands alliés", "sr_from": "2063\/01\/01", "sr_to": null, "gov": null }, "geometry": { "type": "Point", "coordinates": [ 10.426, 51.116 ] } },
{ "type": "Feature", "properties": { "NAME_EN": "Dalmatia", "NAME_FR": "Dalmatie", "sr_from": "2037\/01\/01", "sr_to": null, "gov": null }, "geometry": { "type": "Point", "coordinates": [ 15.979, 43.852 ] } },
{ "type": "Feature", "properties": { "NAME_EN": "Republika Srpska", "NAME_FR": "République Srpska", "sr_from": "2037\/01\/01", "sr_to": null, "gov": null }, "geometry": { "type": "Point", "coordinates": [ 17.517, 44.151 ] } },
{ "type": "Feature", "properties": { "NAME_EN": "Croatia", "NAME_FR": "Croatie", "sr_from": "2037\/01\/01", "sr_to": null, "gov": null }, "geometry": { "type": "Point", "coordinates": [ 16.171, 45.513 ] } },
{ "type": "Feature", "properties": { "NAME_EN": "Italian Confederation", "NAME_FR": "Confédération Italienne", "sr_from": "2044\/10\/11", "sr_to": null, "gov": null }, "geometry": { "type": "Point", "coordinates": [ 11.973, 42.992 ] } },
{ "type": "Feature", "properties": { "NAME_EN": "Switzerland", "NAME_FR": "Suisse", "sr_from": "2024\/01\/01", "sr_to": null, "gov": null }, "geometry": { "type": "Point", "coordinates": [ 8.173, 46.842 ] } },
{ "type": "Feature", "properties": { "NAME_EN": "Poland", "NAME_FR": "Pologne", "sr_from": "2062\/01\/01", "sr_to": null, "gov": null }, "geometry": { "type": "Point", "coordinates": [ 19.394, 52.178 ] } },
{ "type": "Feature", "properties": { "NAME_EN": "Free Tricity", "NAME_FR": "Tricity", "sr_from": "2062\/01\/01", "sr_to": null, "gov": null }, "geometry": { "type": "Point", "coordinates": [ 18.593, 54.37 ] } }
]
}
